[{"OBJECT_NAME":"NESS","OBJECT_ID":"2023-155E","EPOCH":"2026-03-09T18:20:54.923712","MEAN_MOTION":15.26794015,"ECCENTRICITY":0.00068914,"INCLINATION":97.5941,"RA_OF_ASC_NODE":152.6141,"ARG_OF_PERICENTER":179.8776,"MEAN_ANOMALY":180.2465,"EPHEMERIS_TYPE":0,"CLASSIFICATION_TYPE":"U","NORAD_CAT_ID":58020,"ELEMENT_SET_NO":999,"REV_AT_EPOCH":13330,"BSTAR":0.00074047066,"MEAN_MOTION_DOT":0.00019469,"MEAN_MOTION_DDOT":0},{"OBJECT_NAME":"STARLINK-32802","OBJECT_ID":"2025-014D","EPOCH":"2026-03-09T05:55:15.528000","MEAN_MOTION":15.27580243,"ECCENTRICITY":0.00012119,"INCLINATION":43.0003,"RA_OF_ASC_NODE":156.5437,"ARG_OF_PERICENTER":247.8832,"MEAN_ANOMALY":112.1891,"EPHEMERIS_TYPE":0,"CLASSIFICATION_TYPE":"U","NORAD_CAT_ID":62738,"ELEMENT_SET_NO":999,"REV_AT_EPOCH":6319,"BSTAR":0.0012850512,"MEAN_MOTION_DOT":0.00035269,"MEAN_MOTION_DDOT":0}]
